NUSAT-1 (FRESCO)        
1 41557U 16033B   23121.89421605  .00058137  00000+0  89190-3 0  9992
2 41557  97.3847 228.1446 0006254 294.8610 190.6494 15.54096944386429
NUSAT-2 (BATATA)        
1 41558U 16033C   23121.72018094  .00066963  00000+0  92555-3 0  9994
2 41558  97.4120 235.6572 0006495 281.1708 214.8398 15.56907182386724
CARTOSAT-2C             
1 41599U 16040A   23122.00287361  .00006336  00000+0  30321-3 0  9995
2 41599  97.4407 182.9552 0014360 149.3248 331.1048 15.19226766380295
SATHYABAMASAT           
1 41600U 16040B   23121.90273373  .00135745  00000+0  13711-2 0  9994
2 41600  97.1635 175.0749 0003892  82.5823 277.5879 15.64891214381971
LAPAN-A3                
1 41603U 16040E   23121.93730737  .00002784  00000+0  12379-3 0  9998
2 41603  97.1705 149.6364 0014393 115.9998   0.9107 15.22198594380453
BIROS                   
1 41604U 16040F   23121.56566497  .00007066  00000+0  25559-3 0  9990
2 41604  97.1684 158.9293 0012483  87.9043 272.3626 15.28652067380975
SWAYAM                  
1 41607U 16040J   23121.59202771  .00083048  00000+0  11112-2 0  9991
2 41607  97.1589 171.8306 0005792  72.3128 287.8760 15.57725509381737
BEESAT-4                
1 41619U 16040W   23121.50915958  .00062115  00000+0  99235-3 0  9998
2 41619  97.1652 170.9269 0005516  72.4214 287.7642 15.52961077369618
3CAT-2                  
1 41732U 16051B   23121.77954609  .00042018  00000+0  76200-3 0  9998
2 41732  97.3872  52.3310 0005910 204.5341 208.9000 15.49475279374289
PRATHAM                 
1 41783U 16059A   23121.68093860  .00000744  00000+0  15015-3 0  9992
2 41783  97.8731 154.8570 0031738 246.6549 113.1314 14.63877249352171
ALSAT 1N                
1 41789U 16059G   23121.85196938  .00001278  00000+0  24423-3 0  9993
2 41789  97.8732 160.3129 0026757 226.1504 133.7436 14.65324463352483
CARTOSAT-2D             
1 41948U 17008A   23121.81418586  .00006557  00000+0  31423-3 0  9990
2 41948  97.4186 181.9079 0004673 283.0786  76.9868 15.19244457344133
NAYIF-1 (EO-88)         
1 42017U 17008BX  23121.16947968  .00118297  00000+0  12050-2 0  9996
2 42017  97.2156 190.9241 0005008 188.2442 171.8737 15.64727661346084
ZHUHAI-1 02 (CAS-4B)    
1 42759U 17034B   23121.92304354  .00009517  00000+0  48885-3 0  9998
2 42759  43.0186  12.7163 0009632 168.9962 301.6991 15.16611100324619
ZHUHAI-1 01 (CAS-4A)    
1 42761U 17034D   23121.94011411  .00008923  00000+0  45827-3 0  9995
2 42761  43.0169  11.1631 0010593 171.6772 301.1320 15.16670698324623
UCLSAT                  
1 42765U 17036A   23121.88249571  .00043375  00000+0  86300-3 0  9995
2 42765  97.1480 161.2853 0005199 235.5652 124.5107 15.46798287326124
NIUSAT                  
1 42766U 17036B   23121.61732707  .00021001  00000+0  58079-3 0  9999
2 42766  97.1625 154.0457 0008385 265.1775  94.8513 15.37005946325459
CARTOSAT-2E             
1 42767U 17036C   23121.52250683  .00006348  00000+0  30329-3 0  9993
2 42767  97.4080 182.0290 0006188 354.2650 117.9180 15.19354278324658
AALTO-1                 
1 42775U 17036L   23121.58182178  .00015804  00000+0  48370-3 0  9993
2 42775  97.1574 153.0164 0008152 269.8475  90.1834 15.33876923325379
URSA MAIOR              
1 42776U 17036M   23121.56828068  .00018227  00000+0  52968-3 0  9997
2 42776  97.1586 154.2122 0007800 264.2614  95.7741 15.35488877325437
COMPASS 2               
1 42777U 17036N   23121.08041854  .00152191  00000+0  13814-2 0  9990
2 42777  97.1485 166.0782 0006867 205.3074 154.7852 15.67499953326103
MAX VALIER SAT          
1 42778U 17036P   23121.57630082  .00019551  00000+0  54598-3 0  9999
2 42778  97.1618 157.5764 0006292 261.2915  98.7617 15.36732116325566
PEGASUS                 
1 42784U 17036V   23121.66013718  .00032471  00000+0  72038-3 0  9992
2 42784  97.1531 159.7542 0005640 247.1960 112.8693 15.43649728325795
NUDTSAT                 
1 42787U 17036Y   23121.85168826  .00305720  00000+0  17811-2 0  9994
2 42787  97.1446 169.2156 0007078 208.6366 151.4519 15.77572294326257
SUCHAI                  
1 42788U 17036Z   23121.36046184  .00061834  00000+0  10596-2 0  9991
2 42788  97.1510 162.6388 0005332 231.3613 128.7163 15.50997228326029
SKCUBE                  
1 42789U 17036AA  23121.55334041  .00041061  00000+0  80717-3 0  9998
2 42789  97.1520 161.5584 0005234 236.0978 123.9775 15.47160724325893
VZLUSAT-1               
1 42790U 17036AB  23121.07576578  .00225136  00000+0  15143-2 0  9997
2 42790  97.1437 168.1370 0006657 208.7805 151.3093 15.74492703326268
ROBUSTA 1B              
1 42792U 17036AD  23121.60669344  .00049122  00000+0  88022-3 0  9998
2 42792  97.1496 162.6675 0004860 227.4780 132.6062 15.49788350325980
D-SAT                   
1 42794U 17036AF  23121.43366954  .00004494  00000+0  35934-3 0  9999
2 42794  97.4642 115.6874 0119241  98.9225 262.5516 14.95199704318946
NORSAT 2                
1 42828U 17042D   23121.55390874  .00003814  00000+0  35014-3 0  9999
2 42828  97.3983 324.9435 0013521  22.7889 337.3930 14.95330488315634
TECHNOSAT               
1 42829U 17042E   23121.69282486  .00002750  00000+0  26653-3 0  9991
2 42829  97.3928 321.9161 0014072  28.0546 332.1430 14.93387684315555
2017-042F               
1 42830U 17042F   23121.53834196  .00010034  00000+0  78554-3 0  9998
2 42830  97.4077 328.8881 0011576 357.9797   2.1379 15.01157983315874
FLYING LAPTOP           
1 42831U 17042G   23121.50998419  .00002156  00000+0  21246-3 0  9997
2 42831  97.3958 322.0680 0014102  29.7463 330.4584 14.92938208315520
CORVUS BC2              
1 42846U 17042X   23121.53136108  .00002334  00000+0  22106-3 0  9999
2 42846  97.3915 325.4430 0009481  20.2536 339.9060 14.94474495315753
CORVUS BC1              
1 42847U 17042Y   23121.52539775  .00002841  00000+0  26745-3 0  9992
2 42847  97.3913 325.7884 0009133  20.1017 340.0562 14.94565413315767
CZ-4C R/B               
1 43012U 17072C   23121.76078141  .00000574  00000+0  12624-3 0  9993
2 43012  98.6511 175.8518 0127616  63.6669 297.7569 14.56693331290193
RADFXSAT (FOX-1B)       
1 43017U 17073E   23121.58193575  .00004874  00000+0  34789-3 0  9991
2 43017  97.6373   7.7701 0234207 222.8212 135.4555 14.85486469294267
EAGLESAT 1              
1 43018U 17073F   23121.69095806  .00008557  00000+0  55719-3 0  9990
2 43018  97.6422  11.3684 0218062 211.1214 147.6940 14.90656297294366
INS-1C                  
1 43116U 18004F   23121.81741986  .00041677  00000+0  81706-3 0  9990
2 43116  97.3383 202.6155 0004463 277.1239  82.9504 15.47241394295193
FLOCK 3P'-3             
1 43119U 18004J   23121.89913582  .00104180  00000+0  15592-2 0  9992
2 43119  97.3265 199.7308 0005305 267.0734  92.9913 15.54606082295030
FLOCK 3P'-2             
1 43120U 18004K   23121.16536862  .00082645  00000+0  15699-2 0  9995
2 43120  97.3347 197.8790 0004604 290.5077  69.5679 15.47972611294831
FLOCK 3P'-4             
1 43122U 18004M   23121.24591884  .00059998  00000+0  12313-2 0  9996
2 43122  97.3380 198.1063 0003614 310.8324  49.2612 15.45822911294846
PICSAT                  
1 43132U 18004X   23121.19672581  .00058241  00000+0  96893-3 0  9991
2 43132  97.3317 203.2732 0004393 272.6066  87.4683 15.51850919295244
CNUSAIL-1               
1 43133U 18004Y   23121.43499789  .00027827  00000+0  68757-3 0  9990
2 43133  97.3296 198.7806 0005027 308.8640  51.2157 15.40443134295000
2018-004Z               
1 43134U 18004Z   23121.18865744  .00042044  00000+0  82839-3 0  9996
2 43134  97.3325 201.4330 0004304 291.6044  68.4747 15.47094546295137
FOX-1D (AO-92)          
1 43137U 18004AC  23121.68120910  .00029091  00000+0  66207-3 0  9991
2 43137  97.3305 200.4753 0004333 303.8436  56.2399 15.42918788295124
STEP CUBE LAB           
1 43138U 18004AD  23121.75681551  .00442482  00000+0  17508-2 0  9995
2 43138  97.3293 210.4055 0009147 252.2197 107.8076 15.85631880295730
XIAOXIANG-2             
1 43155U 18008A   23121.94148760  .00019270  00000+0  79680-3 0  9994
2 43155  97.3036 175.6143 0015418 112.1776   5.9251 15.23904087291608
ZHOU ENLAI              
1 43156U 18008B   23121.89813829  .00021115  00000+0  86332-3 0  9997
2 43156  97.3088 175.6251 0012848 111.7098 353.0971 15.24298846291529
QUANTUTONG 1            
1 43158U 18008D   23121.68393808  .00015913  00000+0  70605-3 0  9991
2 43158  97.3088 172.5583 0012840 115.0727  12.4994 15.21582933291344
S-NET D                 
1 43186U 18014G   23121.69734237  .00003565  00000+0  28971-3 0  9994
2 43186  97.6449  26.3477 0011475 323.2276  36.8160 15.00177772286585
S-NET B                 
1 43187U 18014H   23121.69813772  .00003414  00000+0  27773-3 0  9999
2 43187  97.6441  26.2837 0011565 321.9228  38.1178 15.00170073286580
S-NET A                 
1 43188U 18014J   23121.96514340  .00003550  00000+0  28856-3 0  9993
2 43188  97.6447  26.6301 0011554 321.0031  39.0358 15.00174611286625
S-NET C                 
1 43189U 18014K   23121.90016633  .00003292  00000+0  26801-3 0  9991
2 43189  97.6433  26.4670 0011720 318.2636  41.7693 15.00160540285168
SHAONIAN XING           
1 43199U 18015H   23121.83358758  .00119211  00000+0  12403-2 0  9993
2 43199  97.5421 277.9460 0006871 305.3395 190.7045 15.64172028292545
LUOJIA-1 01             
1 43485U 18048B   23121.90568660  .00002651  00000+0  36822-3 0  9991
2 43485  97.9053 202.8161 0009591 245.9928 114.0225 14.78686970264904
CZ-4B R/B               
1 43656U 18081B   23121.44644562  .00000183  00000+0  73735-4 0  9996
2 43656  99.4425 286.8156 0206800 311.4172  46.9396 14.30813079235823
CUBEBEL-1 (BSUSAT-1)    
1 43666U 18083E   23121.92592888  .00028950  00000+0  84456-3 0  9998
2 43666  97.3867 153.3459 0007431 283.3005 196.6687 15.35280323250094
CHANGSHAGAOXIN (TY 4-01)
1 43669U 18083H   23121.92898233  .00025055  00000+0  80367-3 0  9994
2 43669  97.3851 148.2104 0005280 288.5192 190.8696 15.32307523249851
